CZ-2C R/B               
1 28222U 04012C   25138.61980487  .00021326  00000+0  47485-3 0  9999
2 28222  97.7686 176.0384 0021848 303.9098  56.0070 15.43395434158525
SL-16 R/B               
1 28353U 04021B   25138.50923686  .00000337  00000+0  20014-3 0  9998
2 28353  70.9988 131.9257 0003658 148.7937 211.3403 14.14548343 81092
CZ-4B R/B               
1 28415U 04035C   25138.60505152  .00007493  00000+0  30876-3 0  9994
2 28415  97.3812 171.9765 0034267 291.9795  67.7802 15.23835026134904
CZ-2C R/B               
1 28480U 04046B   25138.55102679  .00000257  00000+0  11166-3 0  9991
2 28480  98.1937  66.9977 0138718 308.0243  50.8483 14.26824165 66417
ARIANE 5 R/B            
1 28499U 04049H   25138.40293324  .00001377  00000+0  16076-3 0  9995
2 28499  98.2308 291.6136 0084523 227.2323 132.1760 14.84449110101979
CZ-2D R/B               
1 28738U 05024B   25138.58662093  .00021027  00000+0  48133-3 0  9990
2 28738  97.3685 142.3281 0007417  42.3081 317.8737 15.42790453 94072
ALOS (DAICHI)           
1 28931U 06002A   25138.60675717  .00001931  00000+0  34039-3 0  9994
2 28931  98.0829  92.1000 0002047 104.7668 255.3764 14.68641974 30159
H-2A R/B                
1 28932U 06002B   25138.35322633  .00011076  00000+0  64734-3 0  9999
2 28932  98.2085 257.2276 0059785 161.4109 198.9322 15.10555816 49773
RESURS-DK 1             
1 29228U 06021A   25138.55391973  .00003039  00000+0  18852-3 0  9994
2 29228  69.9342 279.2206 0006962 233.9671 126.0849 15.10858366 42920
GENESIS 1               
1 29252U 06029A   25138.28609650  .00212844  22967-4  78112-3 0  9995
2 29252  64.4978  85.4974 0027120 288.1460  71.6744 15.87502632 42710
CZ-4B R/B               
1 29507U 06046C   25138.58875744  .00005803  00000+0  32245-3 0  9990
2 29507  97.5972 179.2851 0035226 204.7351 155.2193 15.13565165 15366
CZ-2C R/B               
1 31114U 07010B   25138.31358170  .00000164  00000+0  94330-4 0  9998
2 31114  98.3755 261.7283 0060229  73.6509 287.1280 14.20121211937795
COSMO-SKYMED 1          
1 31598U 07023A   25138.58907043  .00000813  00000+0  95479-4 0  9992
2 31598  97.8875 323.0910 0001298  91.3602 268.7763 14.87602974970813
GENESIS 2               
1 31789U 07028A   25138.57205932  .00097444  00000+0  65842-3 0  9992
2 31789  64.4752 136.3536 0021560 314.4082  45.5303 15.74223465989444
COSMOS 2428             
1 31792U 07029A   25138.59217835  .00000109  00000+0  84646-4 0  9990
2 31792  70.9339 102.8034 0005666 293.3622  66.6903 14.12845495922414
SL-16 R/B               
1 31793U 07029B   25138.54554751  .00000022  00000+0  36007-4 0  9999
2 31793  70.9750  72.7690 0001754 267.8182 265.2375 14.14778330923625
KORONAS-FOTON           
1 33504U 09003A   25138.59727721  .00011549  00000+0  32436-3 0  9996
2 33504  82.4338 220.7609 0013592 131.6764 228.5645 15.36303437900342
CZ-2C R/B               
1 37731U 11030B   25138.64592646  .00001296  00000+0  17386-3 0  9992
2 37731  97.8132  97.9109 0052369 229.3695 303.9041 14.80150485746439
H-2A R/B                
1 38341U 12025E   25138.54795089  .00002447  00000+0  23783-3 0  9997
2 38341  98.4363  78.4270 0046083 195.4085 164.5733 14.92879158704155
SHIJIAN-16 (SJ-16)      
1 39358U 13057A   25138.60737226  .00002418  00000+0  24493-3 0  9995
2 39358  74.9740  23.2014 0016341 111.7483 248.5446 14.91297879627503
SL-4 R/B                
1 39679U 14021B   25138.25302876  .00015861  00000+0  43535-3 0  9997
2 39679  51.6112 328.7114 0114687 113.1486 248.1627 15.31014753610905
ALOS-2                  
1 39766U 14029A   25138.56911513  .00002346  00000+0  32101-3 0  9991
2 39766  97.9220 236.3956 0001691  97.8536 262.2867 14.79464377593261
YAOGAN-29               
1 41038U 15069A   25138.56321384  .00000586  00000+0  79541-4 0  9996
2 41038  98.0358 160.8415 0001143 158.9542 201.1719 14.82613204512144
ASTRO-H (HITOMI)        
1 41337U 16012A   25138.59152036  .00003640  00000+0  22544-3 0  9990
2 41337  30.9999  97.4998 0010300 250.3081 109.6446 15.07903421507620
HXMT (HUIYAN)           
1 42758U 17034A   25138.61102109  .00006426  00000+0  35878-3 0  9991
2 42758  43.0138 211.8669 0035041 175.4411 184.6761 15.13609805437775
CZ-2C R/B               
1 43521U 18054D   25138.29940866  .00036959  00000+0  60527-3 0  9990
2 43521  35.1385 122.9823 0035536 327.1206  32.7310 15.50712518382501
SAOCOM 1A               
1 43641U 18076A   25138.53688232  .00000566  00000+0  77683-4 0  9997
2 43641  97.8892 325.9464 0001503  89.3710 270.7675 14.82149067357644
H-2A R/B                
1 43682U 18084L   25138.40841641  .00015117  00000+0  51729-3 0  9992
2 43682  98.8737 290.9556 0031851 319.2168  40.6683 15.29892869360488
SAOCOM 1B               
1 46265U 20059A   25138.56813599  .00000574  00000+0  78666-4 0  9996
2 46265  97.8890 325.0804 0001456  88.2628 271.8752 14.82148923255037
CSS (TIANHE)            
1 48274U 21035A   25138.54315623  .00031569  00000+0  35175-3 0  9991
2 48274  41.4635 200.7313 0006227 292.4428  67.5752 15.62127391231526
COSMOS 2550             
1 48865U 21056A   25138.58348990  .00008361  00000+0  25975-3 0  9998
2 48865  67.1423 213.6502 0008398 270.5398  89.4794 15.33820345218205
CZ-2C R/B               
1 52794U 22058K   25138.58434433  .00023284  00000+0  56743-3 0  9993
2 52794  50.1949  16.1097 0058080  54.8198 305.8187 15.39007537164493
GSLV R/B                
1 54149U 22138AN  25138.59552337  .00003582  00000+0  32606-3 0  9994
2 54149  87.3775 265.1728 0024150 138.4270 221.8803 14.94680569139829
XRISM                   
1 57800U 23137A   25138.39300948  .00006512  00000+0  40859-3 0  9993
2 57800  31.0031  27.7367 0008431 313.4840  46.5096 15.07853296 93133
ACS3                    
1 59588U 24077B   25138.55987672  .00012053  00000+0  11951-1 0  9991
2 59588  97.4819 139.1509 0050641  80.6624 280.0254 13.77785057 53419
